*******************************************************************************
Ephemeris / WWW_USER Mon Mar 10 14:48:44 2025 Pasadena, USA      / Horizons    
*******************************************************************************
Target body name: (2017 SN16)                     {source: JPL#20}
Center body name: Earth (399)                     {source: DE441}
Center-site name: Gemini South Obs., Cerro Pachon
*******************************************************************************
Start time      : A.D. 2018-Sep-22 22:47:00.0000 UT      
Stop  time      : A.D. 2018-Sep-23 10:23:00.0000 UT      
Step-size       : 1 minutes
*******************************************************************************
Target pole/equ : undefined
Target radii    : undefined                                                    
Center geodetic : 289.2634, -30.2406227, 2.71233  {E-lon(deg),Lat(deg),Alt(km)}
Center cylindric: 289.2634,5517.21435,-3194.81213 {E-lon(deg),Dxy(km),Dz(km)}
Center pole/equ : ITRF93                          {East-longitude positive}
Center radii    : 6378.137, 6378.137, 6356.752 km {Equator_a, b, pole_c}       
Target primary  : Sun
Vis. interferer : MOON (R_eq= 1737.400) km        {source: DE441}
Rel. light bend : Sun                             {source: DE441}
Rel. lght bnd GM: 1.3271E+11 km^3/s^2                                          
Small-body perts: Yes                             {source: SB441-N16}
Atmos refraction: NO (AIRLESS)
RA format       : HMS
Time format     : CAL 
Calendar mode   : Mixed Julian/Gregorian
RTS-only print  : NO       
EOP file        : eop.250307.p250603                                           
EOP coverage    : DATA-BASED 1962-JAN-20 TO 2025-MAR-07. PREDICTS-> 2025-JUN-02
Units conversion: 1 au= 149597870.700 km, c= 299792.458 km/s, 1 day= 86400.0 s 
Table cut-offs 1: Elevation (-90.0deg=NO ),Airmass (>38.000=NO), Daylight (YES)
Table cut-offs 2: Solar elongation (  0.0,180.0=NO ),Local Hour Angle( 0.0=NO )
Table cut-offs 3: RA/DEC angular rate (     0.0=NO )                           
*******************************************************************************
Initial IAU76/J2000 heliocentric ecliptic osculating elements (au, days, deg.):
  EPOCH=  2458305.5 ! 2018-Jul-06.00 (TDB)         Residual RMS= .23751        
   EC= .1454884975659386   QR= .8682464985612274   TP= 2458145.5722438502      
   OM= 2.759719470837934   W=  137.1017088998531   IN= 13.38264682844635       
  Equivalent ICRF heliocentric cartesian coordinates (au, au/d):
   X= 5.756755401261899E-01  Y=-7.953424559592890E-01  Z=-6.031561894536019E-01
  VX= 1.332076113263395E-02 VY= 5.454663564585547E-03 VZ= 3.896229736425836E-03
Asteroid physical parameters (km, seconds, rotational period in hours):        
   GM= n.a.                RAD= n.a.               ROTPER= n.a.                
   H= 23.34                G= .150                 B-V= n.a.                   
                           ALBEDO= n.a.            STYP= n.a.                  
*******************************************************************************
 Date__(UT)__HR:MN     R.A._________(ICRF)_________DEC
******************************************************
$$SOE
 2018-Sep-23 00:50  m  23 35 03.049154 -12 41 18.57316
 2018-Sep-23 00:51  m  23 35 02.752624 -12 41 16.03452
 2018-Sep-23 00:52  m  23 35 02.456029 -12 41 13.49565
 2018-Sep-23 00:53  m  23 35 02.159370 -12 41 10.95654
 2018-Sep-23 00:54  m  23 35 01.862646 -12 41 08.41719
 2018-Sep-23 00:55  m  23 35 01.565858 -12 41 05.87759
 2018-Sep-23 00:56  m  23 35 01.269006 -12 41 03.33776
 2018-Sep-23 00:57  m  23 35 00.972090 -12 41 00.79768
 2018-Sep-23 00:58  m  23 35 00.675111 -12 40 58.25736
 2018-Sep-23 00:59  m  23 35 00.378068 -12 40 55.71679
 2018-Sep-23 01:00  m  23 35 00.080963 -12 40 53.17598
 2018-Sep-23 01:01  m  23 34 59.783795 -12 40 50.63492
 2018-Sep-23 01:02  m  23 34 59.486565 -12 40 48.09362
 2018-Sep-23 01:03  m  23 34 59.189272 -12 40 45.55206
 2018-Sep-23 01:04  m  23 34 58.891917 -12 40 43.01026
 2018-Sep-23 01:05  m  23 34 58.594501 -12 40 40.46821
 2018-Sep-23 01:06  m  23 34 58.297023 -12 40 37.92591
 2018-Sep-23 01:07  m  23 34 57.999484 -12 40 35.38336
 2018-Sep-23 01:08  m  23 34 57.701884 -12 40 32.84055
 2018-Sep-23 01:09  m  23 34 57.404223 -12 40 30.29749
 2018-Sep-23 01:10  m  23 34 57.106502 -12 40 27.75418
 2018-Sep-23 01:11  m  23 34 56.808721 -12 40 25.21062
 2018-Sep-23 01:12  m  23 34 56.510879 -12 40 22.66680
 2018-Sep-23 01:13  m  23 34 56.212978 -12 40 20.12272
 2018-Sep-23 01:14  m  23 34 55.915017 -12 40 17.57839
 2018-Sep-23 01:15  m  23 34 55.616998 -12 40 15.03380
 2018-Sep-23 01:16  m  23 34 55.318919 -12 40 12.48895
 2018-Sep-23 01:17  m  23 34 55.020781 -12 40 09.94384
 2018-Sep-23 01:18  m  23 34 54.722586 -12 40 07.39848
 2018-Sep-23 01:19  m  23 34 54.424332 -12 40 04.85285
 2018-Sep-23 01:20  m  23 34 54.126020 -12 40 02.30696
 2018-Sep-23 01:21  m  23 34 53.827650 -12 39 59.76081
 2018-Sep-23 01:22  m  23 34 53.529224 -12 39 57.21440
 2018-Sep-23 01:23  m  23 34 53.230740 -12 39 54.66772
 2018-Sep-23 01:24  m  23 34 52.932199 -12 39 52.12078
 2018-Sep-23 01:25  m  23 34 52.633602 -12 39 49.57357
 2018-Sep-23 01:26  m  23 34 52.334948 -12 39 47.02610
 2018-Sep-23 01:27  m  23 34 52.036239 -12 39 44.47836
 2018-Sep-23 01:28  m  23 34 51.737474 -12 39 41.93035
 2018-Sep-23 01:29  m  23 34 51.438653 -12 39 39.38208
 2018-Sep-23 01:30  m  23 34 51.139777 -12 39 36.83354
 2018-Sep-23 01:31  m  23 34 50.840846 -12 39 34.28473
 2018-Sep-23 01:32  m  23 34 50.541861 -12 39 31.73564
 2018-Sep-23 01:33  m  23 34 50.242821 -12 39 29.18629
 2018-Sep-23 01:34  m  23 34 49.943728 -12 39 26.63667
 2018-Sep-23 01:35  m  23 34 49.644580 -12 39 24.08677
 2018-Sep-23 01:36  m  23 34 49.345379 -12 39 21.53660
 2018-Sep-23 01:37  m  23 34 49.046125 -12 39 18.98616
 2018-Sep-23 01:38  m  23 34 48.746817 -12 39 16.43544
 2018-Sep-23 01:39  m  23 34 48.447457 -12 39 13.88445
 2018-Sep-23 01:40  m  23 34 48.148045 -12 39 11.33318
 2018-Sep-23 01:41  m  23 34 47.848581 -12 39 08.78164
 2018-Sep-23 01:42  m  23 34 47.549065 -12 39 06.22982
 2018-Sep-23 01:43  m  23 34 47.249497 -12 39 03.67772
 2018-Sep-23 01:44  m  23 34 46.949878 -12 39 01.12534
 2018-Sep-23 01:45  m  23 34 46.650208 -12 38 58.57269
 2018-Sep-23 01:46  m  23 34 46.350488 -12 38 56.01975
 2018-Sep-23 01:47  m  23 34 46.050717 -12 38 53.46654
 2018-Sep-23 01:48  m  23 34 45.750896 -12 38 50.91304
 2018-Sep-23 01:49  m  23 34 45.451026 -12 38 48.35926
 2018-Sep-23 01:50  m  23 34 45.151106 -12 38 45.80520
 2018-Sep-23 01:51  m  23 34 44.851137 -12 38 43.25086
 2018-Sep-23 01:52  m  23 34 44.551118 -12 38 40.69623
 2018-Sep-23 01:53  m  23 34 44.251052 -12 38 38.14132
 2018-Sep-23 01:54  m  23 34 43.950937 -12 38 35.58612
 2018-Sep-23 01:55  m  23 34 43.650774 -12 38 33.03064
 2018-Sep-23 01:56  m  23 34 43.350563 -12 38 30.47488
 2018-Sep-23 01:57  m  23 34 43.050305 -12 38 27.91882
 2018-Sep-23 01:58  m  23 34 42.750000 -12 38 25.36248
 2018-Sep-23 01:59  m  23 34 42.449649 -12 38 22.80585
 2018-Sep-23 02:00  m  23 34 42.149250 -12 38 20.24894
 2018-Sep-23 02:01  m  23 34 41.848806 -12 38 17.69173
 2018-Sep-23 02:02  m  23 34 41.548316 -12 38 15.13424
 2018-Sep-23 02:03  m  23 34 41.247780 -12 38 12.57645
 2018-Sep-23 02:04  m  23 34 40.947199 -12 38 10.01838
 2018-Sep-23 02:05  m  23 34 40.646573 -12 38 07.46001
 2018-Sep-23 02:06  m  23 34 40.345902 -12 38 04.90135
 2018-Sep-23 02:07  m  23 34 40.045187 -12 38 02.34240
 2018-Sep-23 02:08  m  23 34 39.744429 -12 37 59.78316
 2018-Sep-23 02:09  m  23 34 39.443626 -12 37 57.22362
 2018-Sep-23 02:10  m  23 34 39.142780 -12 37 54.66379
 2018-Sep-23 02:11  m  23 34 38.841891 -12 37 52.10366
 2018-Sep-23 02:12  m  23 34 38.540959 -12 37 49.54324
 2018-Sep-23 02:13  m  23 34 38.239985 -12 37 46.98253
 2018-Sep-23 02:14  m  23 34 37.938969 -12 37 44.42151
 2018-Sep-23 02:15  m  23 34 37.637911 -12 37 41.86020
 2018-Sep-23 02:16  m  23 34 37.336811 -12 37 39.29860
 2018-Sep-23 02:17  m  23 34 37.035670 -12 37 36.73669
 2018-Sep-23 02:18  m  23 34 36.734489 -12 37 34.17449
 2018-Sep-23 02:19  m  23 34 36.433267 -12 37 31.61199
 2018-Sep-23 02:20  m  23 34 36.132004 -12 37 29.04919
 2018-Sep-23 02:21  m  23 34 35.830702 -12 37 26.48609
 2018-Sep-23 02:22  m  23 34 35.529360 -12 37 23.92269
 2018-Sep-23 02:23  m  23 34 35.227979 -12 37 21.35898
 2018-Sep-23 02:24  m  23 34 34.926559 -12 37 18.79498
 2018-Sep-23 02:25  m  23 34 34.625101 -12 37 16.23068
 2018-Sep-23 02:26  m  23 34 34.323604 -12 37 13.66607
 2018-Sep-23 02:27  m  23 34 34.022069 -12 37 11.10116
 2018-Sep-23 02:28  m  23 34 33.720497 -12 37 08.53595
 2018-Sep-23 02:29  m  23 34 33.418887 -12 37 05.97043
 2018-Sep-23 02:30  m  23 34 33.117241 -12 37 03.40461
 2018-Sep-23 02:31  m  23 34 32.815557 -12 37 00.83849
 2018-Sep-23 02:32  m  23 34 32.513838 -12 36 58.27206
 2018-Sep-23 02:33  m  23 34 32.212082 -12 36 55.70532
 2018-Sep-23 02:34  m  23 34 31.910291 -12 36 53.13828
 2018-Sep-23 02:35  m  23 34 31.608465 -12 36 50.57094
 2018-Sep-23 02:36  m  23 34 31.306603 -12 36 48.00328
 2018-Sep-23 02:37  m  23 34 31.004707 -12 36 45.43532
 2018-Sep-23 02:38  m  23 34 30.702777 -12 36 42.86705
 2018-Sep-23 02:39  m  23 34 30.400812 -12 36 40.29848
 2018-Sep-23 02:40  m  23 34 30.098814 -12 36 37.72959
 2018-Sep-23 02:41  m  23 34 29.796783 -12 36 35.16040
 2018-Sep-23 02:42  m  23 34 29.494719 -12 36 32.59089
 2018-Sep-23 02:43  m  23 34 29.192622 -12 36 30.02108
 2018-Sep-23 02:44  m  23 34 28.890492 -12 36 27.45096
 2018-Sep-23 02:45  m  23 34 28.588331 -12 36 24.88053
 2018-Sep-23 02:46  m  23 34 28.286138 -12 36 22.30978
 2018-Sep-23 02:47  m  23 34 27.983914 -12 36 19.73873
 2018-Sep-23 02:48  m  23 34 27.681659 -12 36 17.16736
 2018-Sep-23 02:49  m  23 34 27.379373 -12 36 14.59569
 2018-Sep-23 02:50  m  23 34 27.077058 -12 36 12.02370
 2018-Sep-23 02:51  m  23 34 26.774712 -12 36 09.45139
 2018-Sep-23 02:52  m  23 34 26.472336 -12 36 06.87878
